NORAD_CAT_ID,OBJECT_NAME,OBJECT_TYPE,EPOCH,MEAN_MOTION,ECCENTRICITY,INCLINATION,RA_OF_ASC_NODE,ARG_OF_PERICENTER,MEAN_ANOMALY,BSTAR,MEAN_MOTION_DOT,MEAN_MOTION_DDOT,TLE_LINE0,TLE_LINE1,TLE_LINE2,SEMIMAJOR_AXIS,PERIOD,APOGEE,PERIGEE,DECAYED
52358.0,STARLINK-3837,PAYLOAD,2022-11-25 23:44:29,15.0883935,0.0003,53.2181,184.7909,35.9513,324.1681,0.00019133,2.758e-05,0.0,0 STARLINK-3837,1 52358U 22045AD  22329.98922587  .00002758  00000-0  19133-3 0  9996,2 52358  53.2181 184.7909 0003000  35.9513 324.1681 15.08839350 34679,6917.882,95.438,541.823,537.672,0.0
52358.0,STARLINK-3837,PAYLOAD,2022-11-26 14:02:57,15.08846697,0.000306,53.2182,182.1147,37.7816,322.339,0.0001919,2.768e-05,0.0,0 STARLINK-3837,1 52358U 22045AD  22330.58538223  .00002768  00000-0  19190-3 0  9998,2 52358  53.2182 182.1147 0003060  37.7816 322.3390 15.08846697 34767,6917.86,95.437,541.842,537.6080000000002,0.0
52358.0,STARLINK-3837,PAYLOAD,2022-11-26 23:35:15,15.08852014,0.0003108,53.2168,180.3314,37.8562,322.2648,0.00022304,3.264e-05,0.0,0 STARLINK-3837,1 52358U 22045AD  22330.98282027  .00003264  00000-0  22304-3 0  9993,2 52358  53.2168 180.3314 0003108  37.8562 322.2648 15.08852014 34821,6917.844,95.437,541.859,537.559,0.0
52358.0,STARLINK-3837,PAYLOAD,2022-11-27 20:15:16,15.08843357,0.0003246,53.2167,176.4655,40.8412,319.2823,2.2158e-05,6.4e-07,0.0,0 STARLINK-3837,1 52358U 22045AD  22331.84394236  .00000064  00000-0  22158-4 0  9998,2 52358  53.2167 176.4655 0003246  40.8412 319.2823 15.08843357 34950,6917.87,95.437,541.981,537.49,0.0
52358.0,STARLINK-3837,PAYLOAD,2022-11-28 13:44:30,15.08846096,0.0003216,53.2178,173.1944,43.1958,316.9286,-1.3179e-05,-4.99e-06,0.0,0 STARLINK-3837,1 52358U 22045AD  22332.57258022 -.00000499  00000-0 -13179-4 0  9998,2 52358  53.2178 173.1944 0003216  43.1958 316.9286 15.08846096 35068,6917.861999999999,95.437,541.952,537.502,0.0
52358.0,STARLINK-3837,PAYLOAD,2022-11-28 23:16:50,15.08840121,0.0003165,53.2176,171.4096,47.5096,312.6163,-0.00012426,-2.266e-05,0.0,0 STARLINK-3837,1 52358U 22045AD  22332.97002543 -.00002266  00000-0 -12426-3 0  9994,2 52358  53.2176 171.4096 0003165  47.5096 312.6163 15.08840121 35126,6917.88,95.438,541.935,537.556,0.0
52358.0,STARLINK-3837,PAYLOAD,2022-11-29 13:35:18,15.08836601,0.0003159,53.2183,168.7336,43.7619,316.3623,-1.821e-05,-5.79e-06,0.0,0 STARLINK-3837,1 52358U 22045AD  22333.56618648 -.00000579  00000-0 -18210-4 0  9992,2 52358  53.2183 168.7336 0003159  43.7619 316.3623 15.08836601 35212,6917.891,95.438,541.941,537.57,0.0
52358.0,STARLINK-3837,PAYLOAD,2022-11-30 05:29:09,15.08840045,0.000319,53.2177,165.7601,43.9695,316.155,4.4439e-06,-2.18e-06,0.0,0 STARLINK-3837,1 52358U 22045AD  22334.22858419 -.00000218  00000-0  44439-5 0  9990,2 52358  53.2177 165.7601 0003190  43.9695 316.1550 15.08840045 35313,6917.88,95.438,541.952,537.538,0.0
52358.0,STARLINK-3837,PAYLOAD,2022-11-30 13:26:05,15.08834271,0.0003166,53.2172,164.2732,41.7381,318.3852,8.343100000000001e-05,1.039e-05,0.0,0 STARLINK-3837,1 52358U 22045AD  22334.55978546  .00001039  00000-0  83431-4 0  9995,2 52358  53.2172 164.2732 0003166  41.7381 318.3852 15.08834271 35366,6917.898,95.438,541.953,537.573,0.0
52358.0,STARLINK-3837,PAYLOAD,2022-12-01 13:16:52,15.08842616,0.0003178,53.2174,159.8127,45.1961,314.9289,9.9879e-05,1.301e-05,0.0,0 STARLINK-3837,1 52358U 22045AD  22335.55338214  .00001301  00000-0  99879-4 0  9993,2 52358  53.2174 159.8127 0003178  45.1961 314.9289 15.08842616 35516,6917.871999999999,95.437,541.936,537.539,0.0
52358.0,STARLINK-3837,PAYLOAD,2022-12-01 19:38:25,15.0883539,0.0003186,53.2178,158.6228,45.9917,314.1337,2.9669e-05,1.83e-06,0.0,0 STARLINK-3837,1 52358U 22045AD  22335.81834937  .00000183  00000-0  29669-4 0  9992,2 52358  53.2178 158.6228 0003186  45.9917 314.1337 15.08835390 35558,6917.894,95.438,541.964,537.555,0.0
52358.0,STARLINK-3837,PAYLOAD,2022-12-02 13:07:41,15.08823912,0.0003183,53.2179,155.3524,46.1454,313.9801,-7.322100000000001e-05,-1.453e-05,0.0,0 STARLINK-3837,1 52358U 22045AD  22336.54700573 -.00001453  00000-0 -73221-4 0  9997,2 52358  53.2179 155.3524 0003183  46.1454 313.9801 15.08823912 35660,6917.93,95.439,541.997,537.5930000000002,0.0
52358.0,STARLINK-3837,PAYLOAD,2022-12-02 21:04:37,15.08825894,0.0003207,53.2178,153.8656,46.2655,313.8603,-6.699100000000001e-05,-1.354e-05,0.0,0 STARLINK-3837,1 52358U 22045AD  22336.87820743 -.00001354  00000-0 -66991-4 0  9991,2 52358  53.2178 153.8656 0003207  46.2655 313.8603 15.08825894 35715,6917.924,95.438,542.007,537.57,0.0
52358.0,STARLINK-3837,PAYLOAD,2022-12-03 05:01:33,15.08826288,0.0003216,53.218,152.3789,47.0734,313.0528,-5.802100000000001e-05,-1.212e-05,0.0,0 STARLINK-3837,1 52358U 22045AD  22337.20941009 -.00001212  00000-0 -58021-4 0  9996,2 52358  53.2180 152.3789 0003216  47.0734 313.0528 15.08826288 35767,6917.922,95.438,542.012,537.562,0.0
52358.0,STARLINK-3837,PAYLOAD,2022-12-03 20:55:24,15.08835427,0.0003365,53.2178,149.4056,46.1731,313.9539,2.8957e-05,1.72e-06,0.0,0 STARLINK-3837,1 52358U 22045AD  22337.87180790  .00000172  00000-0  28957-4 0  9998,2 52358  53.2178 149.4056 0003365  46.1731 313.9539 15.08835427 35867,6917.894,95.438,542.087,537.431,0.0
52358.0,STARLINK-3837,PAYLOAD,2022-12-04 11:13:51,15.08840678,0.0003335,53.2181,146.7285,50.0444,310.0841,0.00025553,3.781e-05,0.0,0 STARLINK-3837,1 52358U 22045AD  22338.46796233  .00003781  00000-0  25553-3 0  9996,2 52358  53.2181 146.7285 0003335  50.0444 310.0841 15.08840678 35955,6917.878000000002,95.438,542.05,537.436,0.0
52358.0,STARLINK-3837,PAYLOAD,2022-12-04 17:35:24,15.0884235,0.0003129,53.2175,145.539,48.6608,311.4653,0.00026906,3.997e-05,0.0,0 STARLINK-3837,1 52358U 22045AD  22338.73292090  .00003997  00000-0  26906-3 0  9990,2 52358  53.2175 145.5390 0003129  48.6608 311.4653 15.08842350 35997,6917.873000000001,95.437,541.903,537.5740000000002,0.0
52358.0,STARLINK-3837,PAYLOAD,2022-12-05 11:04:38,15.08850437,0.0002995,53.2179,142.2688,46.5404,313.5837,0.00031353,4.706e-05,0.0,0 STARLINK-3837,1 52358U 22045AD  22339.46155336  .00004706  00000-0  31353-3 0  9993,2 52358  53.2179 142.2688 0002995  46.5404 313.5837 15.08850437 36102,6917.848000000001,95.437,541.785,537.6419999999998,0.0
52358.0,STARLINK-3837,PAYLOAD,2022-12-05 17:26:08,15.08885148,0.0003293,53.2207,141.0807,45.563,314.5631,0.00038931,5.921e-05,0.0,0 STARLINK-3837,1 52358U 22045AD  22339.72648942  .00005921  00000-0  38931-3 0  9991,2 52358  53.2207 141.0807 0003293  45.5630 314.5631 15.08885148 36140,6917.7419999999975,95.435,541.885,537.3290000000002,0.0
52358.0,STARLINK-3837,PAYLOAD,2022-12-05 22:12:20,15.088547699999998,0.0003503999999999,53.2195,140.1893,42.3704,317.7559,8.746100000000001e-05,1.104e-05,0.0,0 STARLINK-3837,1 52358U 22045AD  22339.92523309  .00001104  00000-0  87461-4 0  9994,2 52358  53.2195 140.1893 0003504  42.3704 317.7559 15.08854770 36177,6917.835,95.437,542.124,537.276,0.0
52358.0,STARLINK-3837,PAYLOAD,2022-12-06 20:27:43,15.08853379,0.000358,53.2173,136.0238,50.2746,309.8561,-8.8408e-06,-4.3e-06,0.0,0 STARLINK-3837,1 52358U 22045AD  22340.85258614 -.00000430  00000-0 -88408-5 0  9998,2 52358  53.2173 136.0238 0003580  50.2746 309.8561 15.08853379 36313,6917.839,95.437,542.181,537.2280000000002,0.0
52358.0,STARLINK-3837,PAYLOAD,2022-12-06 22:03:06,15.08847604,0.000358,53.2167,135.7258,51.7846,308.3468,-8.821799999999999e-05,-1.693e-05,0.0,0 STARLINK-3837,1 52358U 22045AD  22340.91882866 -.00001693  00000-0 -88218-4 0  9997,2 52358  53.2167 135.7258 0003580  51.7846 308.3468 15.08847604 36326,6917.857,95.437,542.1990000000002,537.246,0.0
52358.0,STARLINK-3837,PAYLOAD,2022-12-07 20:18:30,15.08844177,0.0003785,53.216,131.5636,54.4212,305.7133,-3.5253e-05,-8.5e-06,0.0,0 STARLINK-3837,1 52358U 22045AD  22341.84618845 -.00000850  00000-0 -35253-4 0  9999,2 52358  53.2160 131.5636 0003785  54.4212 305.7133 15.08844177 36464,6917.868,95.437,542.351,537.114,0.0
52358.0,STARLINK-3837,PAYLOAD,2022-12-08 02:40:02,15.08854545,0.0003536,53.2169,130.3743,51.8422,308.2888,-5.784e-06,-3.81e-06,0.0,0 STARLINK-3837,1 52358U 22045AD  22342.11114126 -.00000381  00000-0 -57840-5 0  9999,2 52358  53.2169 130.3743 0003536  51.8422 308.2888 15.08854545 36507,6917.8359999999975,95.437,542.1469999999998,537.255,0.0
52358.0,STARLINK-3837,PAYLOAD,2022-12-08 12:12:22,15.08840793,0.0003592,53.2176,128.5904,47.2839,312.8455,2.2033e-05,6.2e-07,0.0,0 STARLINK-3837,1 52358U 22045AD  22342.50858810  .00000062  00000-0  22033-4 0  9996,2 52358  53.2176 128.5904 0003592  47.2839 312.8455 15.08840793 36563,6917.878000000002,95.438,542.2280000000002,537.258,0.0
52358.0,STARLINK-3837,PAYLOAD,2022-12-08 18:33:54,15.08843871,0.0003699,53.2176,127.4011,53.0944,307.0387,5.6103e-05,6.04e-06,0.0,0 STARLINK-3837,1 52358U 22045AD  22342.77354599  .00000604  00000-0  56103-4 0  9997,2 52358  53.2176 127.4011 0003699  53.0944 307.0387 15.08843871 36605,6917.869000000002,95.437,542.2919999999998,537.175,0.0
52358.0,STARLINK-3837,PAYLOAD,2022-12-09 12:03:09,15.08822625,0.000353,53.2186,124.1329,41.2689,318.857,-0.00031768,-5.339e-05,0.0,0 STARLINK-3837,1 52358U 22045AD  22343.50219265 -.00005339  00000-0 -31768-3 0  9990,2 52358  53.2186 124.1329 0003530  41.2689 318.8570 15.08822625 36711,6917.933000000001,95.439,542.241,537.356,0.0
52358.0,STARLINK-3837,PAYLOAD,2022-12-10 13:29:19,15.08828283,0.0003067,53.219,119.3756,45.8209,314.3035,-0.0002815,-4.765e-05,0.0,0 STARLINK-3837,1 52358U 22045AD  22344.56203698 -.00004765  00000-0 -28150-3 0  9993,2 52358  53.2190 119.3756 0003067  45.8209 314.3035 15.08828283 36879,6917.916,95.438,541.903,537.659,0.0
52358.0,STARLINK-3837,PAYLOAD,2022-12-10 18:15:29,15.08835226,0.0003553,53.2176,118.481,49.1862,310.9438,0.00019579,2.828e-05,0.0,0 STARLINK-3837,1 52358U 22045AD  22344.76076066  .00002828  00000-0  19579-3 0  9993,2 52358  53.2176 118.4810 0003553  49.1862 310.9438 15.08835226 36904,6917.895,95.438,542.2180000000002,537.302,0.0
